0 STARLINK-1664
1 46553U 20070X   22228.43936826 -.00003970  00000-0 -24767-3 0  9999
2 46553  53.0545 228.1741 0001561  84.1629 275.9538 15.06410804103793
0 STARLINK-1664
1 46553U 20070X   22228.43936826 -.00003970  00000-0 -24767-3 0  9999
2 46553  53.0545 228.1741 0001561  84.1629 275.9538 15.06410804103805
0 STARLINK-1671
1 46554U 20070Y   22227.76162016  .00001892  00000-0  14588-3 0  9996
2 46554  53.0536 246.1931 0001346  82.6999 277.4142 15.06397246103487
0 STARLINK-1671
1 46554U 20070Y   22228.22605179  .00006976  00000-0  48702-3 0  9993
2 46554  53.0536 244.1077 0001220  82.2459 277.8668 15.06378214103564
0 STARLINK-1671
1 46554U 20070Y   22228.35874231  .00004099  00000-0  29401-3 0  9993
2 46554  53.0537 243.5125 0001410  83.9708 276.1441 15.06391303103585
0 STARLINK-1671
1 46554U 20070Y   22228.35874231  .00004099  00000-0  29401-3 0  9993
2 46554  53.0537 243.5125 0001410  83.9708 276.1441 15.06391303103574
0 STARLINK-1676
1 46556U 20070AA  22227.82105727 -.00000073  00000-0  14034-4 0  9999
2 46556  53.0534 260.9300 0001561  59.8653 300.2491 15.06394247103281
0 STARLINK-1676
1 46556U 20070AA  22228.55087132  .00000419  00000-0  47039-4 0  9993
2 46556  53.0533 257.6528 0001407  61.7505 298.3626 15.06396398103390
0 STARLINK-1679
1 46557U 20070AB  22228.19656014 -.00000473  00000-0 -12844-4 0  9993
2 46557  53.0528 244.2609 0001422  67.1473 292.9666 15.06392945103565
0 STARLINK-1679
1 46557U 20070AB  22228.46194664 -.00000031  00000-0  16835-4 0  9994
2 46557  53.0528 243.0698 0001479  68.6559 291.4587 15.06394341103594
0 STARLINK-1680
1 46558U 20070AC  22228.46931427  .00000143  00000-0  28517-4 0  9994
2 46558  53.0555 243.0213 0001434  75.4785 284.6363 15.06403237103564
0 STARLINK-1680
1 46558U 20070AC  22228.73470085  .00000081  00000-0  24306-4 0  9995
2 46558  53.0556 241.8300 0001441  75.6297 284.4852 15.06403446103648
0 STARLINK-1681
1 46559U 20070AD  22227.72704424 -.00000018  00000-0  17690-4 0  9990
2 46559  53.0544 231.3514 0001389  68.2690 291.8447 15.06398796103680
0 STARLINK-1681
1 46559U 20070AD  22228.39051215  .00001891  00000-0  14581-3 0  9991
2 46559  53.0543 228.3729 0001380  66.2798 293.8336 15.06397946103787
0 STARLINK-1681
1 46559U 20070AD  22228.72224447  .00002001  00000-0  15321-3 0  9994
2 46559  53.0543 226.8837 0001389  66.3861 293.7274 15.06401023103840
0 STARLINK-1706
1 46560U 20070AE  22227.75424184 -.00000391  00000-0 -73578-5 0  9990
2 46560  53.0554 246.2329 0001413  63.9314 296.1820 15.06404794103482
0 STARLINK-1706
1 46560U 20070AE  22228.21867963  .00000127  00000-0  27440-4 0  9999
2 46560  53.0553 244.1482 0001463  60.8721 299.2414 15.06390080103565
0 STARLINK-1706
1 46560U 20070AE  22228.41772366 -.00000246  00000-0  23783-5 0  9993
2 46560  53.0553 243.2542 0001502  63.5290 296.5853 15.06387599103587
0 STARLINK-1709
1 46561U 20070AF  22227.77173660  .00000753  00000-0  69432-4 0  9996
2 46561  53.0527 246.1778 0001496  65.9720 294.1426 15.06400515103492
0 STARLINK-1709
1 46561U 20070AF  22227.77173660  .00000753  00000-0  69432-4 0  9996
2 46561  53.0527 246.1778 0001496  65.9720 294.1426 15.06400515103481
0 STARLINK-1709
1 46561U 20070AF  22228.36885476  .00001531  00000-0  12163-3 0  9990
2 46561  53.0527 243.4972 0001517  65.7975 294.3172 15.06403537103578
0 STARLINK-1714
1 46562U 20070AG  22227.77034657 -.00000123  00000-0  10665-4 0  9995
2 46562  53.0529 241.1471 0001400  77.0802 283.0343 15.06398765103555
0 STARLINK-1714
1 46562U 20070AG  22228.43381333  .00000281  00000-0  37769-4 0  9993
2 46562  53.0529 238.1686 0001523  74.4688 285.6469 15.06400892103651
0 STARLINK-1730
1 46563U 20070AH  22227.75287524 -.00000213  00000-0  46016-5 0  9997
2 46563  53.0536 241.2567 0001594  62.5846 297.5305 15.06394592103554
0 STARLINK-1730
1 46563U 20070AH  22228.21730190 -.00000456  00000-0 -11722-4 0  9996
2 46563  53.0535 239.1712 0001564  59.4032 300.7111 15.06399322103637
0 STARLINK-1730
1 46563U 20070AH  22228.34999572 -.00000350  00000-0 -45656-5 0  9998
2 46563  53.0536 238.5758 0001628  61.5835 298.5318 15.06398376103649
0 STARLINK-1733
1 46564U 20070AJ  22227.73444221 -.00000274  00000-0  48883-6 0  9997
2 46564  53.0529 241.3158 0001470  71.6921 288.4227 15.06391604103555
0 STARLINK-1733
1 46564U 20070AJ  22227.73444221 -.00000274  00000-0  48883-6 0  9997
2 46564  53.0529 241.3158 0001470  71.6921 288.4227 15.06391604103566
0 STARLINK-1733
1 46564U 20070AJ  22228.46425442  .00000082  00000-0  24428-4 0  9995
2 46564  53.0528 238.0391 0001517  73.3079 286.8076 15.06397769103665
0 STARLINK-1733
1 46564U 20070AJ  22228.72964139  .00000028  00000-0  20802-4 0  9997
2 46564  53.0530 236.8477 0001555  73.3182 286.7977 15.06398786103711
0 STARLINK-1735
1 46565U 20070AK  22227.77867085  .00001907  00000-0  14689-3 0  9996
2 46565  53.0540 241.1323 0001604  75.6361 284.4806 15.06396639103554
0 STARLINK-1735
1 46565U 20070AK  22228.24309606  .00002204  00000-0  16681-3 0  9994
2 46565  53.0538 239.0475 0001589  74.6908 285.4257 15.06402875103329
0 STARLINK-1735
1 46565U 20070AK  22228.50848159  .00002627  00000-0  19518-3 0  9995
2 46565  53.0537 237.8561 0001603  74.2209 285.8957 15.06406029103660
0 STARLINK-1740
1 46566U 20070AL  22227.76392265  .00001476  00000-0  11791-3 0  9991
2 46566  53.0549 241.1858 0001785  66.2010 293.9166 15.06412064103559
0 STARLINK-1740
1 46566U 20070AL  22228.22835711 -.00000371  00000-0 -60254-5 0  9996
2 46566  53.0548 239.1006 0001785  69.2581 290.8599 15.06403110103307
0 STARLINK-1740
1 46566U 20070AL  22228.42739467 -.00000227  00000-0  36398-5 0  9990
2 46566  53.0548 238.2070 0001665  69.4483 290.6685 15.06405056103651
0 STARLINK-1741
1 46567U 20070AM  22228.19149593  .00000030  00000-0  20886-4 0  9995
2 46567  53.0542 239.2607 0001512  84.5978 275.5183 15.06389428103627
0 STARLINK-1741
1 46567U 20070AM  22228.45688447  .00000244  00000-0  35291-4 0  9993
2 46567  53.0546 238.0699 0001478  81.3079 278.8077 15.06390073103667
0 STARLINK-1747
1 46569U 20070AP  22228.20623600  .00000571  00000-0  57265-4 0  9996
2 46569  53.0541 239.2030 0001596  61.2800 298.8350 15.06393672103323
0 STARLINK-1747
1 46569U 20070AP  22228.40528084 -.00000222  00000-0  39972-5 0  9998
2 46569  53.0539 238.3094 0001598  59.9967 300.1180 15.06389176103658
0 STARLINK-1748
1 46570U 20070AQ  22227.77613457  .00005476  00000-0  36258-3 0  9995
2 46570  53.0536 240.3957 0000825 344.6060  15.4905 15.08765284103569
0 STARLINK-1748
1 46570U 20070AQ  22228.23983223  .00005256  00000-0  34871-3 0  9993
2 46570  53.0538 238.3066 0000884 345.8807  14.2158 15.08770063103643
0 STARLINK-1748
1 46570U 20070AQ  22228.43855933  .00005449  00000-0  36080-3 0  9999
2 46570  53.0539 237.4112 0000904 347.3906  12.7061 15.08772574103663
0 STARLINK-1531
1 46572U 20070AS  22228.24398884  .00001436  00000-0  11529-3 0  9990
2 46572  53.0529 259.0230 0001463  56.5327 303.5801 15.06398908103365
0 STARLINK-1531
1 46572U 20070AS  22228.50937444  .00001649  00000-0  12956-3 0  9991
2 46572  53.0529 257.8316 0001475  56.9345 303.1785 15.06401122103385
0 STARLINK-1650
1 46573U 20070AT  22227.75699609 -.00000370  00000-0 -59147-5 0  9993
2 46573  53.0546 246.2090 0001710  54.2755 305.8393 15.06391791103489
0 STARLINK-1650
1 46573U 20070AT  22228.55315959  .00001534  00000-0  12189-3 0  9999
2 46573  53.0543 242.6347 0001776  54.9365 305.1791 15.06390950103602
0 STARLINK-1660
1 46574U 20070AU  22227.74319328 -.00000232  00000-0  32949-5 0  9997
2 46574  53.0545 246.2935 0001453  69.8988 290.2157 15.06389593103483
0 STARLINK-1660
1 46574U 20070AU  22228.34031597  .00001175  00000-0  97795-4 0  9998
2 46574  53.0544 243.6128 0001717  79.0938 281.0244 15.06390128103579
0 STARLINK-1675
1 46575U 20070AV  22228.19702518 -.00000005  00000-0  18583-4 0  9990
2 46575  53.0548 219.2587 0001812  62.7101 297.4072 15.06401519103903
0 STARLINK-1675
1 46575U 20070AV  22228.26337210 -.00000068  00000-0  14352-4 0  9990
2 46575  53.0549 218.9613 0001810  60.0892 300.0277 15.06401355103902
0 STARLINK-1677
1 46576U 20070AW  22228.20023637 -.00000168  00000-0  76272-5 0  9991
2 46576  53.0541 244.2281 0001531  57.3979 302.7157 15.06408076103557
0 STARLINK-1677
1 46576U 20070AW  22228.33293314 -.00000714  00000-0 -29036-4 0  9999
2 46576  53.0543 243.6333 0001530  56.3966 303.7169 15.06403650103573
0 STARLINK-1677
1 46576U 20070AW  22228.73102534 -.00002375  00000-0 -14062-3 0  9993
2 46576  53.0541 241.8457 0001531  57.8514 302.2623 15.06391161103633
0 STARLINK-1682
1 46577U 20070AX  22227.76531000 -.00000204  00000-0  52281-5 0  9995
2 46577  53.0530 246.1825 0001511  66.0046 294.1101 15.06402484103483
0 STARLINK-1682
1 46577U 20070AX  22228.42877606  .00001565  00000-0  12397-3 0  9996
2 46577  53.0528 243.2041 0001515  66.2009 293.9139 15.06399915103586
0 STARLINK-1683
1 46578U 20070AY  22227.74641737  .00002183  00000-0  16536-3 0  9991
2 46578  53.0546 231.3270 0001599  71.3440 288.7723 15.06413739103691
0 STARLINK-1683
1 46578U 20070AY  22228.21085064  .00000399  00000-0  45654-4 0  9990
2 46578  53.0548 229.2402 0001596  83.4402 276.6769 15.06405385103464
0 STARLINK-1683
1 46578U 20070AY  22228.27719833  .00000088  00000-0  24782-4 0  9998
2 46578  53.0551 228.9426 0001513  82.7721 277.3440 15.06403519103770
0 STARLINK-1705
1 46579U 20070AZ  22228.21498827  .00000224  00000-0  33908-4 0  9992
2 46579  53.0543 244.1678 0001600  74.4807 285.6358 15.06403967103532
0 STARLINK-1705
1 46579U 20070AZ  22228.48037416  .00000060  00000-0  22954-4 0  9991
2 46579  53.0543 242.9768 0001590  73.4296 286.6867 15.06404306103597
0 STARLINK-1708
1 46580U 20070BA  22228.19287338  .00001500  00000-0  11957-3 0  9991
2 46580  53.0543 244.2645 0001434  65.7919 294.3220 15.06397232103566
0 STARLINK-1708
1 46580U 20070BA  22228.45825943  .00001784  00000-0  13865-3 0  9994
2 46580  53.0544 243.0729 0001442  67.0384 293.0757 15.06399609103591
0 STARLINK-1712
1 46581U 20070BB  22228.22466234  .00001168  00000-0  97274-4 0  9997
2 46581  53.0520 239.1344 0001570  72.7569 287.3591 15.06399066103628
